NORAD_CAT_ID,OBJECT_NAME,OBJECT_TYPE,EPOCH,MEAN_MOTION,ECCENTRICITY,INCLINATION,RA_OF_ASC_NODE,ARG_OF_PERICENTER,MEAN_ANOMALY,BSTAR,MEAN_MOTION_DOT,MEAN_MOTION_DDOT,TLE_LINE0,TLE_LINE1,TLE_LINE2,SEMIMAJOR_AXIS,PERIOD,APOGEE,PERIGEE,DECAYED
51134.0,STARLINK-3183,PAYLOAD,2022-05-26 14:00:01,15.11947998,0.000188,53.2174,18.1492,41.5474,168.4482,-0.025729,-0.00421233,0.0,0 STARLINK-3183,1 51134U 22005AG  22146.58334491 -.00421233  00000-0 -25729-1 0  9998,2 51134  53.2174  18.1492 0001880  41.5474 168.4482 15.11947998 21195,6908.397,95.241,531.561,528.9630000000002,0.0
51134.0,STARLINK-3183,PAYLOAD,2022-05-26 22:35:58,15.12457142,0.0001901,53.218,16.5246,81.3105,278.8104,-0.0055008,-0.00095775,0.0,0 STARLINK-3183,1 51134U 22005AG  22146.94164873 -.00095775  00000-0 -55008-2 0  9995,2 51134  53.2180  16.5246 0001901  81.3105 278.8104 15.12457142 20136,6906.846,95.209,530.024,527.398,0.0
51134.0,STARLINK-3183,PAYLOAD,2022-05-27 00:11:19,15.122979999999998,0.000106,53.2186,16.2291,62.0543,298.0558,-0.0065488,-0.00113182,0.0,0 STARLINK-3183,1 51134U 22005AG  22147.00786196 -.00113182  00000-0 -65488-2 0  9997,2 51134  53.2186  16.2291 0001060  62.0543 298.0558 15.12298000 21254,6907.331,95.219,529.928,528.464,0.0
51134.0,STARLINK-3183,PAYLOAD,2022-05-27 14:00:01,15.10958275,0.0002102,53.2171,13.6422,41.2927,213.1561,-0.0161639999999999,-0.00263226,0.0,0 STARLINK-3183,1 51134U 22005AG  22147.58334491 -.00263226  00000-0 -16164-1 0  9998,2 51134  53.2171  13.6422 0002102  41.2927 213.1561 15.10958275 21345,6911.413000000001,95.304,534.731,531.825,0.0
51134.0,STARLINK-3183,PAYLOAD,2022-05-27 14:28:15,15.11928434,0.0001696999999999,53.2182,13.5449,59.9141,300.202,-0.0064255,-0.00109973,0.0,0 STARLINK-3183,1 51134U 22005AG  22147.60295280 -.00109973  00000-0 -64255-2 0  9996,2 51134  53.2182  13.5449 0001697  59.9141 300.2020 15.11928434 20237,6908.456,95.243,531.494,529.149,0.0
51134.0,STARLINK-3183,PAYLOAD,2022-05-27 22:00:01,15.10774381,0.0002048,53.2175,12.1452,37.0742,231.4738,-0.026378,-0.00418151,0.0,0 STARLINK-3183,1 51134U 22005AG  22147.91668981 -.00418151  00000-0 -26378-1 0  9996,2 51134  53.2175  12.1452 0002048  37.0742 231.4738 15.10774381 21391,6911.974,95.315,535.255,532.423,0.0
51134.0,STARLINK-3183,PAYLOAD,2022-05-28 14:00:01,15.10083531,0.0001989,53.217,9.1429,43.3034,252.3699,-0.016886,-0.00268207,0.0,0 STARLINK-3183,1 51134U 22005AG  22148.58334491 -.00268207  00000-0 -16886-1 0  9994,2 51134  53.2170   9.1429 0001989  43.3034 252.3699 15.10083531  1300,6914.081999999999,95.359,537.322,534.572,0.0
51134.0,STARLINK-3183,PAYLOAD,2022-05-28 22:00:00,15.09793275,0.0001764999999999,53.2173,7.6464,52.8988,255.8111,-0.017374,-0.0027354,0.0,0 STARLINK-3183,1 51134U 22005AG  22148.91667824 -.00273540  00000-0 -17374-1 0  9999,2 51134  53.2173   7.6464 0001765  52.8988 255.8111 15.09793275  1308,6914.968000000003,95.377,538.054,535.613,0.0
51134.0,STARLINK-3183,PAYLOAD,2022-05-29 06:00:02,15.09604633,0.0001612,53.2174,6.1496,49.0748,272.3303,-0.02752,-0.0042209,0.0,0 STARLINK-3183,1 51134U 22005AG  22149.25002315 -.00422090  00000-0 -27520-1 0  9995,2 51134  53.2174   6.1496 0001612  49.0748 272.3303 15.09604633 21590,6915.544,95.389,538.524,536.294,0.0
51134.0,STARLINK-3183,PAYLOAD,2022-05-29 14:00:01,15.09214931,0.0001977,53.217,4.6497,39.2336,294.4928,-0.018244,-0.00282348,0.0,0 STARLINK-3183,1 51134U 22005AG  22149.58334491 -.00282348  00000-0 -18244-1 0  9997,2 51134  53.2170   4.6497 0001977  39.2336 294.4928 15.09214931  1301,6916.735,95.414,539.967,537.232,0.0
51134.0,STARLINK-3183,PAYLOAD,2022-05-29 20:28:50,15.0983155,0.0001886,53.2179,3.4291,59.0014,301.1164,-0.0072426999999999,-0.00116829,0.0,0 STARLINK-3183,1 51134U 22005AG  22149.85336745 -.00116829  00000-0 -72427-2 0  9995,2 51134  53.2179   3.4291 0001886  59.0014 301.1164 15.09831550 20571,6914.851,95.375,538.02,535.4119999999998,0.0
51134.0,STARLINK-3183,PAYLOAD,2022-05-29 22:00:00,15.08936216,0.0002073,53.2174,3.1567,36.0999,309.5719,-0.0094335,-0.00147754,0.0,0 STARLINK-3183,1 51134U 22005AG  22149.91667824 -.00147754  00000-0 -94335-2 0  9990,2 51134  53.2174   3.1567 0002073  36.0999 309.5719 15.08936216 21691,6917.5859999999975,95.431,540.885,538.0169999999998,0.0
51134.0,STARLINK-3183,PAYLOAD,2022-05-30 06:00:00,15.08838979,0.0001645,53.2174,1.6593,49.0218,308.2956,-0.00027053,-4.591e-05,0.0,0 STARLINK-3183,1 51134U 22005AG  22150.25001157 -.00004591  00000-0 -27053-3 0  9995,2 51134  53.2174   1.6593 0001645  49.0218 308.2956 15.08838979 21747,6917.884,95.438,540.887,538.611,0.0
51134.0,STARLINK-3183,PAYLOAD,2022-05-30 14:00:01,15.08852399,0.0001720999999999,53.2155,0.1526,40.1968,328.8211,0.0017894,0.00028315,0.0,0 STARLINK-3183,1 51134U 22005AG  22150.58334491  .00028315  00000-0  17894-2 0  9990,2 51134  53.2155   0.1526 0001721  40.1968 328.8211 15.08852399 21794,6917.842,95.437,540.898,538.5169999999998,0.0
51134.0,STARLINK-3183,PAYLOAD,2022-05-30 22:00:00,15.08887747,0.0001871,53.2154,358.6578,32.3045,348.3351,-0.0087565,-0.00137188,0.0,0 STARLINK-3183,1 51134U 22005AG  22150.91667824 -.00137188  00000-0 -87565-2 0  9999,2 51134  53.2154 358.6578 0001871  32.3045 348.3351 15.08887747 21849,6917.734,95.435,540.894,538.305,0.0
51134.0,STARLINK-3183,PAYLOAD,2022-05-31 06:00:02,15.08795461,0.0001710999999999,53.2155,357.1602,27.3753,4.9213,-0.001678,-0.00026862,0.0,0 STARLINK-3183,1 51134U 22005AG  22151.25002315 -.00026862  00000-0 -16780-2 0  9992,2 51134  53.2155 357.1602 0001711  27.3753   4.9213 15.08795461 21893,6918.017,95.44,541.065,538.698,0.0
51134.0,STARLINK-3183,PAYLOAD,2022-05-31 22:00:00,15.08814726,0.0001911,53.2159,354.1686,31.7263,23.59,0.0013133,0.00020661,0.0,0 STARLINK-3183,1 51134U 22005AG  22151.91667824  .00020661  00000-0  13133-2 0  9995,2 51134  53.2159 354.1686 0001911  31.7263  23.5900 15.08814726 22003,6917.958000000001,95.439,541.145,538.501,0.0
51134.0,STARLINK-3183,PAYLOAD,2022-06-01 20:00:01,15.08846027,0.0001918,53.2161,350.0531,33.2581,323.9172,-0.00048121,-7.94e-05,0.0,0 STARLINK-3183,1 51134U 22005AG  22152.83334491 -.00007940  00000-0 -48121-3 0  9991,2 51134  53.2161 350.0531 0001918  33.2581 323.9172 15.08846027  1304,6917.861999999999,95.437,541.054,538.4,0.0
51134.0,STARLINK-3183,PAYLOAD,2022-06-02 19:51:34,15.08821226,0.0001854,53.2158,345.5894,34.8375,325.2738,0.00018112,2.594e-05,0.0,0 STARLINK-3183,1 51134U 22005AG  22153.82748610  .00002594  00000-0  18112-3 0  9998,2 51134  53.2158 345.5894 0001854  34.8375 325.2738 15.08821226 21172,6917.938,95.439,541.085,538.52,0.0
51134.0,STARLINK-3183,PAYLOAD,2022-06-02 21:26:58,15.08806271,0.0001954,53.2162,345.292,35.3731,324.7390000000001,0.00039296,5.966e-05,0.0,0 STARLINK-3183,1 51134U 22005AG  22153.89372913  .00005966  00000-0  39296-3 0  9996,2 51134  53.2162 345.2920 0001954  35.3731 324.7390 15.08806271 22292,6917.983,95.44,541.2,538.497,0.0
51134.0,STARLINK-3183,PAYLOAD,2022-06-03 11:45:25,15.08841909,0.0001904,53.2159,342.615,37.1265,322.9858,8.290399999999999e-05,1.032e-05,0.0,0 STARLINK-3183,1 51134U 22005AG  22154.48987907  .00001032  00000-0  82904-4 0  9992,2 51134  53.2159 342.6150 0001904  37.1265 322.9858 15.08841909 22387,6917.875,95.437,541.057,538.422,0.0
51134.0,STARLINK-3183,PAYLOAD,2022-06-03 16:31:34,15.08844799,0.0001911,53.2166,341.7231,37.1009,323.0115,7.5715e-05,9.17e-06,0.0,0 STARLINK-3183,1 51134U 22005AG  22154.68859726  .00000917  00000-0  75715-4 0  9994,2 51134  53.2166 341.7231 0001911  37.1009 323.0115 15.08844799 21308,6917.866,95.437,541.053,538.409,0.0
51134.0,STARLINK-3183,PAYLOAD,2022-06-04 11:36:12,15.0883741,0.0001849,53.2174,338.1551,37.4195,322.6925,3.1088000000000005e-05,2.07e-06,0.0,0 STARLINK-3183,1 51134U 22005AG  22155.48348253  .00000207  00000-0  31088-4 0  9998,2 51134  53.2174 338.1551 0001849  37.4195 322.6925 15.08837410 22533,6917.888000000001,95.438,541.0319999999998,538.474,0.0
51134.0,STARLINK-3183,PAYLOAD,2022-06-05 22:00:00,15.0881838,0.0001913,53.2154,331.7226,32.8024,196.4925,0.0020922,0.00033147,0.0,0 STARLINK-3183,1 51134U 22005AG  22156.91667824  .00033147  00000-0  20922-2 0  9997,2 51134  53.2154 331.7226 0001913  32.8024 196.4925 15.08818380 22757,6917.946,95.439,541.135,538.488,0.0
51134.0,STARLINK-3183,PAYLOAD,2022-06-06 14:00:01,15.08856205,0.0001786999999999,53.2153,328.7284,37.9189,214.547,-0.0010018,-0.00016204,0.0,0 STARLINK-3183,1 51134U 22005AG  22157.58334491 -.00016204  00000-0 -10018-2 0  9994,2 51134  53.2153 328.7284 0001787  37.9189 214.5470 15.08856205 22859,6917.831,95.437,540.932,538.46,0.0
51134.0,STARLINK-3183,PAYLOAD,2022-06-06 22:00:00,15.0883024,0.0002007,53.2153,327.2333,33.8218,230.2557,0.0022088,0.00035031,0.0,0 STARLINK-3183,1 51134U 22005AG  22157.91667824  .00035031  00000-0  22088-2 0  9997,2 51134  53.2153 327.2333 0002007  33.8218 230.2557 15.08830240  1301,6917.91,95.438,541.164,538.387,0.0
51134.0,STARLINK-3183,PAYLOAD,2022-06-07 11:08:32,15.08854194,0.0001928,53.2167,324.7731,38.2875,321.8254,-8.2964e-05,-1.609e-05,0.0,0 STARLINK-3183,1 51134U 22005AG  22158.46426423 -.00001609  00000-0 -82964-4 0  9993,2 51134  53.2167 324.7731 0001928  38.2875 321.8254 15.08854194 22981,6917.837,95.437,541.036,538.368,0.0
51134.0,STARLINK-3183,PAYLOAD,2022-06-07 17:30:05,15.08842412,0.0001988,53.2166,323.5837,38.5034,321.61,-7.1412e-05,-1.425e-05,0.0,0 STARLINK-3183,1 51134U 22005AG  22158.72922928 -.00001425  00000-0 -71412-4 0  9995,2 51134  53.2166 323.5837 0001988  38.5034 321.6100 15.08842412 23024,6917.873000000001,95.437,541.113,538.363,0.0
51134.0,STARLINK-3183,PAYLOAD,2022-06-07 20:40:51,15.08843666,0.0002006,53.2165,322.9889,38.857,321.2566,-5.8508e-05,-1.219e-05,0.0,0 STARLINK-3183,1 51134U 22005AG  22158.86170766 -.00001219  00000-0 -58508-4 0  9997,2 51134  53.2165 322.9889 0002006  38.8570 321.2566 15.08843666 21935,6917.869000000002,95.437,541.122,538.346,0.0
